[{"OBJECT_NAME":"ONEWEB-0395","OBJECT_ID":"2021-132G","EPOCH":"2025-07-29T15:51:14.281344","MEAN_MOTION":13.11414123,"ECCENTRICITY":0.000143,"INCLINATION":87.8805,"RA_OF_ASC_NODE":85.3688,"ARG_OF_PERICENTER":80.0421,"MEAN_ANOMALY":280.0868,"EPHEMERIS_TYPE":0,"CLASSIFICATION_TYPE":"U","NORAD_CAT_ID":50475,"ELEMENT_SET_NO":999,"REV_AT_EPOCH":17471,"BSTAR":-4.871e-5,"MEAN_MOTION_DOT":-5.0e-8,"MEAN_MOTION_DDOT":0},{"OBJECT_NAME":"ONEWEB-0396","OBJECT_ID":"2021-132H","EPOCH":"2025-07-29T12:57:54.807552","MEAN_MOTION":13.18684901,"ECCENTRICITY":0.0001786,"INCLINATION":87.9124,"RA_OF_ASC_NODE":39.5425,"ARG_OF_PERICENTER":92.6822,"MEAN_ANOMALY":267.4514,"EPHEMERIS_TYPE":0,"CLASSIFICATION_TYPE":"U","NORAD_CAT_ID":50476,"ELEMENT_SET_NO":999,"REV_AT_EPOCH":17911,"BSTAR":0.00015232,"MEAN_MOTION_DOT":7.3e-7,"MEAN_MOTION_DDOT":0},{"OBJECT_NAME":"ONEWEB-0397","OBJECT_ID":"2021-132J","EPOCH":"2025-07-29T13:19:18.163776","MEAN_MOTION":13.18685892,"ECCENTRICITY":0.0001945,"INCLINATION":87.9122,"RA_OF_ASC_NODE":39.5409,"ARG_OF_PERICENTER":93.8574,"MEAN_ANOMALY":266.278,"EPHEMERIS_TYPE":0,"CLASSIFICATION_TYPE":"U","NORAD_CAT_ID":50477,"ELEMENT_SET_NO":999,"REV_AT_EPOCH":17909,"BSTAR":0.00014937,"MEAN_MOTION_DOT":7.2e-7,"MEAN_MOTION_DDOT":0},{"OBJECT_NAME":"ONEWEB-0398","OBJECT_ID":"2021-132K","EPOCH":"2025-07-29T09:35:15.387360","MEAN_MOTION":13.11418422,"ECCENTRICITY":0.0001547,"INCLINATION":87.8808,"RA_OF_ASC_NODE":85.3838,"ARG_OF_PERICENTER":66.253,"MEAN_ANOMALY":293.876,"EPHEMERIS_TYPE":0,"CLASSIFICATION_TYPE":"U","NORAD_CAT_ID":50478,"ELEMENT_SET_NO":999,"REV_AT_EPOCH":17330,"BSTAR":0.00072303,"MEAN_MOTION_DOT":2.69e-6,"MEAN_MOTION_DDOT":0},{"OBJECT_NAME":"ONEWEB-0399","OBJECT_ID":"2021-132L","EPOCH":"2025-07-29T03:46:06.655008","MEAN_MOTION":13.11419104,"ECCENTRICITY":0.0001836,"INCLINATION":87.8807,"RA_OF_ASC_NODE":85.4565,"ARG_OF_PERICENTER":89.9063,"MEAN_ANOMALY":270.2276,"EPHEMERIS_TYPE":0,"CLASSIFICATION_TYPE":"U","NORAD_CAT_ID":50479,"ELEMENT_SET_NO":999,"REV_AT_EPOCH":17326,"BSTAR":-0.00044156,"MEAN_MOTION_DOT":-1.44e-6,"MEAN_MOTION_DDOT":0},{"OBJECT_NAME":"ONEWEB-0400","OBJECT_ID":"2021-132M","EPOCH":"2025-07-29T12:48:26.427744","MEAN_MOTION":13.18686795,"ECCENTRICITY":0.0001647,"INCLINATION":87.9123,"RA_OF_ASC_NODE":39.5355,"ARG_OF_PERICENTER":83.9758,"MEAN_ANOMALY":276.1561,"EPHEMERIS_TYPE":0,"CLASSIFICATION_TYPE":"U","NORAD_CAT_ID":50480,"ELEMENT_SET_NO":999,"REV_AT_EPOCH":17908,"BSTAR":6.361e-5,"MEAN_MOTION_DOT":3.8e-7,"MEAN_MOTION_DDOT":0},{"OBJECT_NAME":"ONEWEB-0401","OBJECT_ID":"2021-132N","EPOCH":"2025-07-29T19:20:21.236640","MEAN_MOTION":13.18687106,"ECCENTRICITY":0.0002033,"INCLINATION":87.9125,"RA_OF_ASC_NODE":39.4768,"ARG_OF_PERICENTER":91.027,"MEAN_ANOMALY":269.1095,"EPHEMERIS_TYPE":0,"CLASSIFICATION_TYPE":"U","NORAD_CAT_ID":50481,"ELEMENT_SET_NO":999,"REV_AT_EPOCH":18040,"BSTAR":0.00015388,"MEAN_MOTION_DOT":7.4e-7,"MEAN_MOTION_DDOT":0},{"OBJECT_NAME":"ONEWEB-0402","OBJECT_ID":"2021-132P","EPOCH":"2025-07-29T13:00:19.182816","MEAN_MOTION":13.18686022,"ECCENTRICITY":0.0002393,"INCLINATION":87.9123,"RA_OF_ASC_NODE":39.5232,"ARG_OF_PERICENTER":93.6339,"MEAN_ANOMALY":266.5067,"EPHEMERIS_TYPE":0,"CLASSIFICATION_TYPE":"U","NORAD_CAT_ID":50482,"ELEMENT_SET_NO":999,"REV_AT_EPOCH":17911,"BSTAR":7.0483e-5,"MEAN_MOTION_DOT":4.1e-7,"MEAN_MOTION_DDOT":0},{"OBJECT_NAME":"ONEWEB-0403","OBJECT_ID":"2021-132Q","EPOCH":"2025-07-29T13:35:57.124032","MEAN_MOTION":13.18687318,"ECCENTRICITY":0.000172,"INCLINATION":87.9124,"RA_OF_ASC_NODE":39.5367,"ARG_OF_PERICENTER":91.3058,"MEAN_ANOMALY":268.8271,"EPHEMERIS_TYPE":0,"CLASSIFICATION_TYPE":"U","NORAD_CAT_ID":50483,"ELEMENT_SET_NO":999,"REV_AT_EPOCH":17907,"BSTAR":0.0001323,"MEAN_MOTION_DOT":6.5e-7,"MEAN_MOTION_DDOT":0},{"OBJECT_NAME":"ONEWEB-0404","OBJECT_ID":"2021-132R","EPOCH":"2025-07-29T14:18:27.647712","MEAN_MOTION":13.11415779,"ECCENTRICITY":0.0001505,"INCLINATION":87.8811,"RA_OF_ASC_NODE":85.3729,"ARG_OF_PERICENTER":89.3142,"MEAN_ANOMALY":270.8158,"EPHEMERIS_TYPE":0,"CLASSIFICATION_TYPE":"U","NORAD_CAT_ID":50484,"ELEMENT_SET_NO":999,"REV_AT_EPOCH":17341,"BSTAR":-0.0013171,"MEAN_MOTION_DOT":-4.54e-6,"MEAN_MOTION_DDOT":0},{"OBJECT_NAME":"ONEWEB-0405","OBJECT_ID":"2021-132S","EPOCH":"2025-07-29T21:14:21.160032","MEAN_MOTION":13.18687544,"ECCENTRICITY":0.0002071,"INCLINATION":87.9123,"RA_OF_ASC_NODE":39.4598,"ARG_OF_PERICENTER":94.2745,"MEAN_ANOMALY":265.8624,"EPHEMERIS_TYPE":0,"CLASSIFICATION_TYPE":"U","NORAD_CAT_ID":50485,"ELEMENT_SET_NO":999,"REV_AT_EPOCH":18080,"BSTAR":0.00015643,"MEAN_MOTION_DOT":7.5e-7,"MEAN_MOTION_DDOT":0},{"OBJECT_NAME":"ONEWEB-0406","OBJECT_ID":"2021-132T","EPOCH":"2025-07-29T13:43:03.586656","MEAN_MOTION":13.18685508,"ECCENTRICITY":0.000126,"INCLINATION":87.9124,"RA_OF_ASC_NODE":39.5446,"ARG_OF_PERICENTER":93.8925,"MEAN_ANOMALY":266.2351,"EPHEMERIS_TYPE":0,"CLASSIFICATION_TYPE":"U","NORAD_CAT_ID":50486,"ELEMENT_SET_NO":999,"REV_AT_EPOCH":17910,"BSTAR":6.4143e-5,"MEAN_MOTION_DOT":3.8e-7,"MEAN_MOTION_DDOT":0},{"OBJECT_NAME":"ONEWEB-0407","OBJECT_ID":"2021-132U","EPOCH":"2025-07-29T13:33:34.423200","MEAN_MOTION":13.18685493,"ECCENTRICITY":0.0001895,"INCLINATION":87.9122,"RA_OF_ASC_NODE":39.5313,"ARG_OF_PERICENTER":93.3337,"MEAN_ANOMALY":266.8012,"EPHEMERIS_TYPE":0,"CLASSIFICATION_TYPE":"U","NORAD_CAT_ID":50487,"ELEMENT_SET_NO":999,"REV_AT_EPOCH":18033,"BSTAR":0.00017253,"MEAN_MOTION_DOT":8.1e-7,"MEAN_MOTION_DDOT":0},{"OBJECT_NAME":"ONEWEB-0409","OBJECT_ID":"2021-132V","EPOCH":"2025-07-29T16:05:53.457504","MEAN_MOTION":13.11416092,"ECCENTRICITY":0.0001437,"INCLINATION":87.8801,"RA_OF_ASC_NODE":85.3192,"ARG_OF_PERICENTER":81.0853,"MEAN_ANOMALY":279.0437,"EPHEMERIS_TYPE":0,"CLASSIFICATION_TYPE":"U","NORAD_CAT_ID":50488,"ELEMENT_SET_NO":999,"REV_AT_EPOCH":17459,"BSTAR":-0.0009987,"MEAN_MOTION_DOT":-3.41e-6,"MEAN_MOTION_DDOT":0},{"OBJECT_NAME":"ONEWEB-0412","OBJECT_ID":"2021-132W","EPOCH":"2025-07-29T13:16:55.697088","MEAN_MOTION":13.18687748,"ECCENTRICITY":0.0002143,"INCLINATION":87.9121,"RA_OF_ASC_NODE":39.5469,"ARG_OF_PERICENTER":93.0299,"MEAN_ANOMALY":267.1078,"EPHEMERIS_TYPE":0,"CLASSIFICATION_TYPE":"U","NORAD_CAT_ID":50489,"ELEMENT_SET_NO":999,"REV_AT_EPOCH":17913,"BSTAR":0.00013957,"MEAN_MOTION_DOT":6.8e-7,"MEAN_MOTION_DDOT":0},{"OBJECT_NAME":"ONEWEB-0413","OBJECT_ID":"2021-132X","EPOCH":"2025-07-29T18:51:51.139584","MEAN_MOTION":13.18687501,"ECCENTRICITY":0.0002195,"INCLINATION":87.9125,"RA_OF_ASC_NODE":39.5156,"ARG_OF_PERICENTER":88.2783,"MEAN_ANOMALY":271.8601,"EPHEMERIS_TYPE":0,"CLASSIFICATION_TYPE":"U","NORAD_CAT_ID":50490,"ELEMENT_SET_NO":999,"REV_AT_EPOCH":18039,"BSTAR":6.1861e-5,"MEAN_MOTION_DOT":3.7e-7,"MEAN_MOTION_DDOT":0},{"OBJECT_NAME":"ONEWEB-0414","OBJECT_ID":"2021-132Y","EPOCH":"2025-07-29T13:02:40.238592","MEAN_MOTION":13.18687497,"ECCENTRICITY":0.0001956,"INCLINATION":87.9122,"RA_OF_ASC_NODE":39.5246,"ARG_OF_PERICENTER":95.101,"MEAN_ANOMALY":265.0345,"EPHEMERIS_TYPE":0,"CLASSIFICATION_TYPE":"U","NORAD_CAT_ID":50491,"ELEMENT_SET_NO":999,"REV_AT_EPOCH":17910,"BSTAR":9.5402e-5,"MEAN_MOTION_DOT":5.1e-7,"MEAN_MOTION_DDOT":0},{"OBJECT_NAME":"ONEWEB-0417","OBJECT_ID":"2021-132Z","EPOCH":"2025-07-29T13:14:33.973440","MEAN_MOTION":13.18688965,"ECCENTRICITY":0.0001605,"INCLINATION":87.9126,"RA_OF_ASC_NODE":39.5542,"ARG_OF_PERICENTER":93.705,"MEAN_ANOMALY":266.4266,"EPHEMERIS_TYPE":0,"CLASSIFICATION_TYPE":"U","NORAD_CAT_ID":50492,"ELEMENT_SET_NO":999,"REV_AT_EPOCH":17908,"BSTAR":0.00014279,"MEAN_MOTION_DOT":6.9e-7,"MEAN_MOTION_DDOT":0},{"OBJECT_NAME":"ONEWEB-0418","OBJECT_ID":"2021-132AA","EPOCH":"2025-07-29T18:56:23.371296","MEAN_MOTION":13.18686373,"ECCENTRICITY":0.0001572,"INCLINATION":87.9124,"RA_OF_ASC_NODE":39.4933,"ARG_OF_PERICENTER":98.7603,"MEAN_ANOMALY":261.3708,"EPHEMERIS_TYPE":0,"CLASSIFICATION_TYPE":"U","NORAD_CAT_ID":50493,"ELEMENT_SET_NO":999,"REV_AT_EPOCH":18045,"BSTAR":7.5713e-5,"MEAN_MOTION_DOT":4.3e-7,"MEAN_MOTION_DDOT":0},{"OBJECT_NAME":"ONEWEB-0419","OBJECT_ID":"2021-132AB","EPOCH":"2025-07-29T21:11:59.699040","MEAN_MOTION":13.18686435,"ECCENTRICITY":0.0001469,"INCLINATION":87.9121,"RA_OF_ASC_NODE":39.477,"ARG_OF_PERICENTER":87.6539,"MEAN_ANOMALY":272.4761,"EPHEMERIS_TYPE":0,"CLASSIFICATION_TYPE":"U","NORAD_CAT_ID":50494,"ELEMENT_SET_NO":999,"REV_AT_EPOCH":18039,"BSTAR":-0.00010876,"MEAN_MOTION_DOT":-3.0e-7,"MEAN_MOTION_DDOT":0},{"OBJECT_NAME":"ONEWEB-0420","OBJECT_ID":"2021-132AC","EPOCH":"2025-07-29T13:05:02.668992","MEAN_MOTION":13.18688151,"ECCENTRICITY":0.0002094,"INCLINATION":87.9122,"RA_OF_ASC_NODE":39.554,"ARG_OF_PERICENTER":82.039,"MEAN_ANOMALY":278.0979,"EPHEMERIS_TYPE":0,"CLASSIFICATION_TYPE":"U","NORAD_CAT_ID":50495,"ELEMENT_SET_NO":999,"REV_AT_EPOCH":17905,"BSTAR":0.00017148,"MEAN_MOTION_DOT":8.1e-7,"MEAN_MOTION_DDOT":0},{"OBJECT_NAME":"ONEWEB-0421","OBJECT_ID":"2021-132AD","EPOCH":"2025-07-29T12:55:32.814336","MEAN_MOTION":13.18687161,"ECCENTRICITY":0.0002024,"INCLINATION":87.9123,"RA_OF_ASC_NODE":39.5485,"ARG_OF_PERICENTER":96.6225,"MEAN_ANOMALY":263.5137,"EPHEMERIS_TYPE":0,"CLASSIFICATION_TYPE":"U","NORAD_CAT_ID":50496,"ELEMENT_SET_NO":999,"REV_AT_EPOCH":17909,"BSTAR":4.0948e-5,"MEAN_MOTION_DOT":2.9e-7,"MEAN_MOTION_DDOT":0},{"OBJECT_NAME":"ONEWEB-0424","OBJECT_ID":"2021-132AE","EPOCH":"2025-07-29T13:47:48.486336","MEAN_MOTION":13.18686157,"ECCENTRICITY":0.0001461,"INCLINATION":87.9125,"RA_OF_ASC_NODE":39.5352,"ARG_OF_PERICENTER":79.7712,"MEAN_ANOMALY":280.3585,"EPHEMERIS_TYPE":0,"CLASSIFICATION_TYPE":"U","NORAD_CAT_ID":50497,"ELEMENT_SET_NO":999,"REV_AT_EPOCH":17912,"BSTAR":-2.3054e-6,"MEAN_MOTION_DOT":1.2e-7,"MEAN_MOTION_DDOT":0},{"OBJECT_NAME":"ONEWEB-0426","OBJECT_ID":"2021-132AF","EPOCH":"2025-07-29T12:50:47.249376","MEAN_MOTION":13.18686876,"ECCENTRICITY":0.0001973,"INCLINATION":87.9121,"RA_OF_ASC_NODE":39.5371,"ARG_OF_PERICENTER":111.6017,"MEAN_ANOMALY":248.5325,"EPHEMERIS_TYPE":0,"CLASSIFICATION_TYPE":"U","NORAD_CAT_ID":50498,"ELEMENT_SET_NO":999,"REV_AT_EPOCH":17906,"BSTAR":0.00018302,"MEAN_MOTION_DOT":8.5e-7,"MEAN_MOTION_DDOT":0}]
